LEMUR-2-PETERG          
1 42841U 17042S   26068.48235713  .00023240  00000+0  81076-3 0  9993
2 42841  97.3980 253.6596 0003700 341.6938  18.4169 15.29611459473171
STARLINK-35037          
1 65483U 25195AB  26068.81297076  .00019275  00000+0  66154-3 0  9998
2 65483  53.1574 257.5024 0001190  91.5872 268.5265 15.30184934 29992
